{
  "type": "FeatureCollection",
  "features": [
    {
      "type": "Feature",
      "properties": {
        "norad_id": 64202,
        "name": "GPS BIII-8  (PRN 21)",
        "group": "gnss",
        "lat": 54.74725041019483,
        "lon": 118.63520866681559,
        "alt_km": 20187.3394394538,
        "timestamp": "2025-12-27T16:33:30.467410+00:00",
        "meta_object_name": "GPS BIII-8  (PRN 21)",
        "meta_object_id": "2025-116A",
        "meta_epoch": "2025-12-26T01:49:27.319296",
        "meta_mean_motion": 2.00557298,
        "meta_eccentricity": 0.00059923,
        "meta_inclination": 55.1151,
        "meta_ra_of_asc_node": 38.103,
        "meta_arg_of_pericenter": 311.0999,
        "meta_mean_anomaly": 48.1681,
        "meta_ephemeris_type": 0,
        "meta_classification_type": "U",
        "meta_norad_cat_id": 64202,
        "meta_element_set_no": 999,
        "meta_rev_at_epoch": 439,
        "meta_bstar": 0,
        "meta_mean_motion_dot": -5.1e-07,
        "meta_mean_motion_ddot": 0,
        "tle_line1": "1 64202U 25116A   25360.07601064 -.00000051  00000+0  00000+0 0  9994",
        "tle_line2": "2 64202  55.1151  38.1030 0005992 311.0999  48.1681  2.00557298  4398"
      },
      "geometry": {
        "type": "Point",
        "coordinates": [
          118.63520866681559,
          54.74725041019483
        ]
      }
    },
    {
      "type": "Feature",
      "properties": {
        "norad_id": 65590,
        "name": "COSMOS 2596 (708K)",
        "group": "gnss",
        "lat": -11.784806362752292,
        "lon": -44.707949951375994,
        "alt_km": 19104.27225657206,
        "timestamp": "2025-12-27T16:33:30.467423+00:00",
        "meta_object_name": "COSMOS 2596 (708K)",
        "meta_object_id": "2025-206B",
        "meta_epoch": "2025-12-27T06:55:12.849888",
        "meta_mean_motion": 2.13100119,
        "meta_eccentricity": 0.0014053,
        "meta_inclination": 64.7362,
        "meta_ra_of_asc_node": 320.9699,
        "meta_arg_of_pericenter": 307.7312,
        "meta_mean_anomaly": 91.0332,
        "meta_ephemeris_type": 0,
        "meta_classification_type": "U",
        "meta_norad_cat_id": 65590,
        "meta_element_set_no": 999,
        "meta_rev_at_epoch": 225,
        "meta_bstar": 0,
        "meta_mean_motion_dot": -3.8e-07,
        "meta_mean_motion_ddot": 0,
        "tle_line1": "1 65590U 25206B   25361.28834317 -.00000038  00000+0  00000+0 0  9993",
        "tle_line2": "2 65590  64.7362 320.9699 0014053 307.7312  91.0332  2.13100119  2254"
      },
      "geometry": {
        "type": "Point",
        "coordinates": [
          -44.707949951375994,
          -11.784806362752292
        ]
      }
    },
    {
      "type": "Feature",
      "properties": {
        "norad_id": 67160,
        "name": "GALILEO A",
        "group": "gnss",
        "lat": -0.598870188162032,
        "lon": -72.59775146745113,
        "alt_km": 22930.817094287988,
        "timestamp": "2025-12-27T16:33:30.467436+00:00",
        "meta_object_name": "GALILEO A",
        "meta_object_id": "2025-302A",
        "meta_epoch": "2025-12-18T03:30:19.486368",
        "meta_mean_motion": 1.72906186,
        "meta_eccentricity": 0.00084238,
        "meta_inclination": 54.2406,
        "meta_ra_of_asc_node": 107.2544,
        "meta_arg_of_pericenter": 237.6458,
        "meta_mean_anomaly": 122.2317,
        "meta_ephemeris_type": 0,
        "meta_classification_type": "U",
        "meta_norad_cat_id": 67160,
        "meta_element_set_no": 999,
        "meta_rev_at_epoch": 2,
        "meta_bstar": 0,
        "meta_mean_motion_dot": -7e-08,
        "meta_mean_motion_ddot": 0,
        "tle_line1": "1 67160U 25302A   25352.14605887 -.00000007  00000+0  00000+0 0  9994",
        "tle_line2": "2 67160  54.2406 107.2544 0008423 237.6458 122.2317  1.72906186    28"
      },
      "geometry": {
        "type": "Point",
        "coordinates": [
          -72.59775146745113,
          -0.598870188162032
        ]
      }
    },
    {
      "type": "Feature",
      "properties": {
        "norad_id": 67161,
        "name": "GALILEO B",
        "group": "gnss",
        "lat": -2.629451513316481,
        "lon": -71.16400969137152,
        "alt_km": 22933.02250852524,
        "timestamp": "2025-12-27T16:33:30.467447+00:00",
        "meta_object_name": "GALILEO B",
        "meta_object_id": "2025-302B",
        "meta_epoch": "2025-12-26T19:37:10.068960",
        "meta_mean_motion": 1.72972318,
        "meta_eccentricity": 0.00047769,
        "meta_inclination": 54.2304,
        "meta_ra_of_asc_node": 106.9693,
        "meta_arg_of_pericenter": 256.4913,
        "meta_mean_anomaly": 103.4489,
        "meta_ephemeris_type": 0,
        "meta_classification_type": "U",
        "meta_norad_cat_id": 67161,
        "meta_element_set_no": 999,
        "meta_rev_at_epoch": 18,
        "meta_bstar": 0,
        "meta_mean_motion_dot": 1.6e-07,
        "meta_mean_motion_ddot": 0,
        "tle_line1": "1 67161U 25302B   25360.81747765  .00000016  00000+0  00000+0 0  9999",
        "tle_line2": "2 67161  54.2304 106.9693 0004776 256.4913 103.4489  1.72972318   187"
      },
      "geometry": {
        "type": "Point",
        "coordinates": [
          -71.16400969137152,
          -2.629451513316481
        ]
      }
    }
  ]
}